{
  "type": "FeatureCollection",
  "features": [
    {
      "type": "Feature",
      "properties": {
        "norad_id": 38001,
        "name": "COSMOS 2251 DEB",
        "group": "cosmos-2251-debris",
        "lat": 16.936906136030466,
        "lon": 144.9160342423712,
        "alt_km": 630.5738385932455,
        "timestamp": "2025-12-08T21:31:05.064499+00:00",
        "meta_object_name": "COSMOS 2251 DEB",
        "meta_object_id": "1993-036BRC",
        "meta_epoch": "2025-12-07T21:46:57.258624",
        "meta_mean_motion": 14.78989425,
        "meta_eccentricity": 0.00653645,
        "meta_inclination": 74,
        "meta_ra_of_asc_node": 141.8516,
        "meta_arg_of_pericenter": 292.2113,
        "meta_mean_anomaly": 221.278,
        "meta_ephemeris_type": 0,
        "meta_classification_type": "U",
        "meta_norad_cat_id": 38001,
        "meta_element_set_no": 999,
        "meta_rev_at_epoch": 74636,
        "meta_bstar": 0.0010003516,
        "meta_mean_motion_dot": 7.632e-05,
        "meta_mean_motion_ddot": 0,
        "tle_line1": "1 38001U 93036BRC 25341.90760716  .00007632  00000+0  10004-2 0  9998",
        "tle_line2": "2 38001  74.0000 141.8516 0065364 292.2113 221.2780 14.78989425746360"
      },
      "geometry": {
        "type": "Point",
        "coordinates": [
          144.9160342423712,
          16.936906136030466
        ]
      }
    },
    {
      "type": "Feature",
      "properties": {
        "norad_id": 38006,
        "name": "COSMOS 2251 DEB",
        "group": "cosmos-2251-debris",
        "lat": -43.218675048667436,
        "lon": 29.483247968543505,
        "alt_km": 704.8670005259282,
        "timestamp": "2025-12-08T21:31:05.064510+00:00",
        "meta_object_name": "COSMOS 2251 DEB",
        "meta_object_id": "1993-036BRH",
        "meta_epoch": "2025-12-04T21:24:00.571392",
        "meta_mean_motion": 14.45613673,
        "meta_eccentricity": 0.0074849,
        "meta_inclination": 73.8488,
        "meta_ra_of_asc_node": 52.8364,
        "meta_arg_of_pericenter": 2.834,
        "meta_mean_anomaly": 357.3225,
        "meta_ephemeris_type": 0,
        "meta_classification_type": "U",
        "meta_norad_cat_id": 38006,
        "meta_element_set_no": 999,
        "meta_rev_at_epoch": 62846,
        "meta_bstar": 0.0044211,
        "meta_mean_motion_dot": 0.00016183,
        "meta_mean_motion_ddot": 0,
        "tle_line1": "1 38006U 93036BRH 25338.89167328  .00016183  00000+0  44211-2 0  9995",
        "tle_line2": "2 38006  73.8488  52.8364 0074849   2.8340 357.3225 14.45613673628467"
      },
      "geometry": {
        "type": "Point",
        "coordinates": [
          29.483247968543505,
          -43.218675048667436
        ]
      }
    },
    {
      "type": "Feature",
      "properties": {
        "norad_id": 38054,
        "name": "COSMOS 2251 DEB",
        "group": "cosmos-2251-debris",
        "lat": 33.8724567413889,
        "lon": 80.94787195654328,
        "alt_km": 1091.4142405180528,
        "timestamp": "2025-12-08T21:31:05.064520+00:00",
        "meta_object_name": "COSMOS 2251 DEB",
        "meta_object_id": "1993-036BRL",
        "meta_epoch": "2025-12-06T19:35:06.065952",
        "meta_mean_motion": 13.62293123,
        "meta_eccentricity": 0.0360398,
        "meta_inclination": 73.9587,
        "meta_ra_of_asc_node": 275.4844,
        "meta_arg_of_pericenter": 254.7432,
        "meta_mean_anomaly": 133.9151,
        "meta_ephemeris_type": 0,
        "meta_classification_type": "U",
        "meta_norad_cat_id": 38054,
        "meta_element_set_no": 999,
        "meta_rev_at_epoch": 67099,
        "meta_bstar": 0.0049752628,
        "meta_mean_motion_dot": 5.934e-05,
        "meta_mean_motion_ddot": 0,
        "tle_line1": "1 38054U 93036BRL 25340.81604243  .00005934  00000+0  49753-2 0  9993",
        "tle_line2": "2 38054  73.9587 275.4844 0360398 254.7432 133.9151 13.62293123670997"
      },
      "geometry": {
        "type": "Point",
        "coordinates": [
          80.94787195654328,
          33.8724567413889
        ]
      }
    },
    {
      "type": "Feature",
      "properties": {
        "norad_id": 38055,
        "name": "COSMOS 2251 DEB",
        "group": "cosmos-2251-debris",
        "lat": -60.07072766013872,
        "lon": -175.57267849180676,
        "alt_km": 614.252672585073,
        "timestamp": "2025-12-08T21:31:05.064530+00:00",
        "meta_object_name": "COSMOS 2251 DEB",
        "meta_object_id": "1993-036BRM",
        "meta_epoch": "2025-12-08T09:35:56.658912",
        "meta_mean_motion": 14.76901883,
        "meta_eccentricity": 0.00657195,
        "meta_inclination": 74.0086,
        "meta_ra_of_asc_node": 215.2783,
        "meta_arg_of_pericenter": 343.7571,
        "meta_mean_anomaly": 193.0951,
        "meta_ephemeris_type": 0,
        "meta_classification_type": "U",
        "meta_norad_cat_id": 38055,
        "meta_element_set_no": 999,
        "meta_rev_at_epoch": 60618,
        "meta_bstar": 0.0010877136,
        "meta_mean_motion_dot": 7.901e-05,
        "meta_mean_motion_ddot": 0,
        "tle_line1": "1 38055U 93036BRM 25342.39996133  .00007901  00000+0  10877-2 0  9992",
        "tle_line2": "2 38055  74.0086 215.2783 0065719 343.7571 193.0951 14.76901883606180"
      },
      "geometry": {
        "type": "Point",
        "coordinates": [
          -175.57267849180676,
          -60.07072766013872
        ]
      }
    },
    {
      "type": "Feature",
      "properties": {
        "norad_id": 38060,
        "name": "COSMOS 2251 DEB",
        "group": "cosmos-2251-debris",
        "lat": -17.690605818848418,
        "lon": -62.5539155014779,
        "alt_km": 670.0455576756995,
        "timestamp": "2025-12-08T21:31:05.064540+00:00",
        "meta_object_name": "COSMOS 2251 DEB",
        "meta_object_id": "1993-036BRS",
        "meta_epoch": "2025-12-08T15:02:26.401344",
        "meta_mean_motion": 14.63819883,
        "meta_eccentricity": 0.00579028,
        "meta_inclination": 74.0428,
        "meta_ra_of_asc_node": 303.2001,
        "meta_arg_of_pericenter": 50.388,
        "meta_mean_anomaly": 310.2378,
        "meta_ephemeris_type": 0,
        "meta_classification_type": "U",
        "meta_norad_cat_id": 38060,
        "meta_element_set_no": 999,
        "meta_rev_at_epoch": 71904,
        "meta_bstar": 0.0010404067,
        "meta_mean_motion_dot": 5.538e-05,
        "meta_mean_motion_ddot": 0,
        "tle_line1": "1 38060U 93036BRS 25342.62669446  .00005538  00000+0  10404-2 0  9998",
        "tle_line2": "2 38060  74.0428 303.2001 0057902  50.3880 310.2378 14.63819883719046"
      },
      "geometry": {
        "type": "Point",
        "coordinates": [
          -62.5539155014779,
          -17.690605818848418
        ]
      }
    },
    {
      "type": "Feature",
      "properties": {
        "norad_id": 38062,
        "name": "COSMOS 2251 DEB",
        "group": "cosmos-2251-debris",
        "lat": -59.781943214970546,
        "lon": 147.72684943981724,
        "alt_km": 599.2353124231786,
        "timestamp": "2025-12-08T21:31:05.064551+00:00",
        "meta_object_name": "COSMOS 2251 DEB",
        "meta_object_id": "1993-036BRU",
        "meta_epoch": "2025-12-06T04:12:38.753856",
        "meta_mean_motion": 14.94290132,
        "meta_eccentricity": 0.00122346,
        "meta_inclination": 74.0094,
        "meta_ra_of_asc_node": 303.7202,
        "meta_arg_of_pericenter": 72.1633,
        "meta_mean_anomaly": 298.7726,
        "meta_ephemeris_type": 0,
        "meta_classification_type": "U",
        "meta_norad_cat_id": 38062,
        "meta_element_set_no": 999,
        "meta_rev_at_epoch": 62932,
        "meta_bstar": 0.0035053507,
        "meta_mean_motion_dot": 0.00037877,
        "meta_mean_motion_ddot": 0,
        "tle_line1": "1 38062U 93036BRU 25340.17544854  .00037877  00000+0  35054-2 0  9992",
        "tle_line2": "2 38062  74.0094 303.7202 0012234  72.1633 298.7726 14.94290132629324"
      },
      "geometry": {
        "type": "Point",
        "coordinates": [
          147.72684943981724,
          -59.781943214970546
        ]
      }
    },
    {
      "type": "Feature",
      "properties": {
        "norad_id": 38064,
        "name": "COSMOS 2251 DEB",
        "group": "cosmos-2251-debris",
        "lat": -24.862417735266124,
        "lon": 123.80357103035601,
        "alt_km": 706.0833761957074,
        "timestamp": "2025-12-08T21:31:05.064561+00:00",
        "meta_object_name": "COSMOS 2251 DEB",
        "meta_object_id": "1993-036BRW",
        "meta_epoch": "2025-12-08T03:30:02.469024",
        "meta_mean_motion": 14.56236867,
        "meta_eccentricity": 0.00475142,
        "meta_inclination": 74.022,
        "meta_ra_of_asc_node": 132.8578,
        "meta_arg_of_pericenter": 253.1444,
        "meta_mean_anomaly": 106.4506,
        "meta_ephemeris_type": 0,
        "meta_classification_type": "U",
        "meta_norad_cat_id": 38064,
        "meta_element_set_no": 999,
        "meta_rev_at_epoch": 71798,
        "meta_bstar": 0.0013735076,
        "meta_mean_motion_dot": 6.143e-05,
        "meta_mean_motion_ddot": 0,
        "tle_line1": "1 38064U 93036BRW 25342.14586191  .00006143  00000+0  13735-2 0  9997",
        "tle_line2": "2 38064  74.0220 132.8578 0047514 253.1444 106.4506 14.56236867717988"
      },
      "geometry": {
        "type": "Point",
        "coordinates": [
          123.80357103035601,
          -24.862417735266124
        ]
      }
    }
  ]
}